25162,GLOBALSTAR M001,1998,116.3,-1.0,-,52.0,Inactive,0,LEO,USA,Globalstar,Unknown,Unknown,Unknown,1 25162U 98008A   23294.75334814 -.00000053  00000+0  33669-3 0  9994,2 25162  52.0028 292.4129 0001888  56.8013 115.1453 12.38168880168833,12.3816888,0.0001888,LEO
25163,GLOBALSTAR M004,1998,113.98,-1.0,-,52.0,Inactive,0,LEO,USA,Globalstar,Unknown,Unknown,Unknown,1 25163U 98008B   23294.89623723 -.00000096  00000+0  43224-4 0  9996,2 25163  51.9976  97.6197 0003482  43.0940 121.0364 12.63340612185304,12.63340612,0.0003482,LEO
25164,GLOBALSTAR M002,1998,123.98,-1.0,-,52.0,Inactive,0,LEO,USA,Globalstar,Unknown,Unknown,Unknown,1 25164U 98008C   23294.78098753 -.00000052  00000+0  48758-3 0  9992,2 25164  52.0023 315.6355 0001487 110.9811 249.1168 11.61496579113837,11.61496579,0.0001487,LEO
25165,GLOBALSTAR M003,1998,118.82,-1.0,-,51.98,Inactive,0,LEO,USA,Globalstar,Unknown,Unknown,Unknown,1 25165U 98008D   23294.73151083  .00000057  00000+0  15683-2 0  9998,2 25165  51.9782  42.7342 0008418 154.5023  12.2492 12.11946610159923,12.1194661,0.0008418,LEO
25306,GLOBALSTAR M014,1998,123.56,-1.0,-,51.98,Inactive,0,LEO,USA,Globalstar,Unknown,Unknown,Unknown,1 25306U 98023A   23295.15778072 -.00000055  00000+0  42562-3 0  9998,2 25306  51.9829 250.6088 0001136 359.4027  14.3929 11.65461271120737,11.65461271,0.0001136,LEO
25307,GLOBALSTAR M006,1998,124.34,-1.0,-,51.99,Inactive,0,LEO,USA,Globalstar,Unknown,Unknown,Unknown,1 25307U 98023B   23294.75454635 -.00000025  00000+0  10405-2 0  9997,2 25307  51.9927 281.5127 0003721  97.7921  73.4467 11.58155213146796,11.58155213,0.0003721,LEO
25308,GLOBALSTAR M015,1998,125.34,-1.0,-,51.99,Inactive,0,LEO,USA,Globalstar,Unknown,Unknown,Unknown,1 25308U 98023C   23294.90781297  .00000035  00000+0  24809-2 0  9995,2 25308  51.9852 351.9161 0012717  82.7991  87.7301 11.48854926125002,11.48854926,0.0012717,LEO
25309,GLOBALSTAR M008,1998,116.5,-1.0,-,51.99,Inactive,0,LEO,USA,Globalstar,Unknown,Unknown,Unknown,1 25309U 98023D   23294.92168847 -.00000073  00000+0  17814-3 0  9990,2 25309  51.9948 149.9124 0002588   3.2199  10.9910 12.36030245163123,12.36030245,0.0002588,LEO
